NORAD_CAT_ID,OBJECT_NAME,OBJECT_TYPE,EPOCH,MEAN_MOTION,ECCENTRICITY,INCLINATION,RA_OF_ASC_NODE,ARG_OF_PERICENTER,MEAN_ANOMALY,BSTAR,MEAN_MOTION_DOT,MEAN_MOTION_DDOT,TLE_LINE0,TLE_LINE1,TLE_LINE2,SEMIMAJOR_AXIS,PERIOD,APOGEE,PERIGEE,DECAYED
53426.0,STARLINK-4558,PAYLOAD,2024-07-21 11:25:54,15.08834781,0.0001374,53.2156,260.7865,87.813,272.3019,-1.7344e-05,-5.64e-06,0.0,0 STARLINK-4558,1 53426U 22097AQ  24203.47632679 -.00000564  00000-0 -17344-4 0  9995,2 53426  53.2156 260.7865 0001374  87.8130 272.3019 15.08834781108772,6917.896,95.438,540.712,538.811,0.0
53426.0,STARLINK-4558,PAYLOAD,2024-07-22 09:41:18,15.08843222,0.0001393,53.2141,256.6234,82.9746,277.1404,0.00055113,8.495e-05,0.0,0 STARLINK-4558,1 53426U 22097AQ  24204.40369031  .00008495  00000-0  55113-3 0  9992,2 53426  53.2141 256.6234 0001393  82.9746 277.1404 15.08843222108434,6917.871,95.437,540.699,538.772,0.0
53426.0,STARLINK-4558,PAYLOAD,2024-07-23 09:32:05,15.08856265,0.0001511,53.2142,252.1626,80.9957,279.1206,0.00054653,8.425e-05,0.0,0 STARLINK-4558,1 53426U 22097AQ  24205.39728544  .00008425  00000-0  54653-3 0  9990,2 53426  53.2142 252.1626 0001511  80.9957 279.1206 15.08856265109068,6917.831,95.437,540.741,538.65,0.0
53426.0,STARLINK-4558,PAYLOAD,2024-07-24 03:01:19,15.08844364,0.0001482,53.2141,248.8909,87.8835,272.2327,0.00022364,3.273e-05,0.0,0 STARLINK-4558,1 53426U 22097AQ  24206.12592591  .00003273  00000-0  22364-3 0  9993,2 53426  53.2141 248.8909 0001482  87.8835 272.2327 15.08844364108694,6917.867,95.437,540.757,538.707,0.0
53426.0,STARLINK-4558,PAYLOAD,2024-07-24 09:22:52,15.08838061,0.0001304,53.2142,247.6995,82.4148,277.6992,-2.8271e-05,-7.38e-06,0.0,0 STARLINK-4558,1 53426U 22097AQ  24206.39088973 -.00000738  00000-0 -28271-4 0  9995,2 53426  53.2142 247.6995 0001304  82.4148 277.6992 15.08838061108737,6917.886,95.438,540.653,538.849,0.0
53426.0,STARLINK-4558,PAYLOAD,2024-07-25 06:02:53,15.08842978,0.000127,53.215,243.8336,82.4675,277.6462,8.4786e-05,1.062e-05,0.0,0 STARLINK-4558,1 53426U 22097AQ  24207.25200667  .00001062  00000-0  84786-4 0  9999,2 53426  53.2150 243.8336 0001270  82.4675 277.6462 15.08842978109342,6917.871,95.437,540.615,538.858,0.0
53426.0,STARLINK-4558,PAYLOAD,2024-07-25 09:13:39,15.08844363,0.0001308,53.2152,243.239,83.8661,276.248,9.1378e-05,1.167e-05,0.0,0 STARLINK-4558,1 53426U 22097AQ  24207.38448526  .00001167  00000-0  91378-4 0  9992,2 53426  53.2152 243.2390 0001308  83.8661 276.2480 15.08844363108883,6917.867,95.437,540.637,538.827,0.0
53426.0,STARLINK-4558,PAYLOAD,2024-07-26 09:04:26,15.08836575,0.0001321,53.2153,238.7785,93.2281,266.8862,0.00012219,1.657e-05,0.0,0 STARLINK-4558,1 53426U 22097AQ  24208.37808880  .00001657  00000-0  12219-3 0  9995,2 53426  53.2153 238.7785 0001321  93.2281 266.8862 15.08836575109032,6917.891,95.438,540.67,538.842,0.0
53426.0,STARLINK-4558,PAYLOAD,2024-07-26 18:36:45,15.08842849,0.0001311,53.215,236.9963,87.5977,272.5166,0.00012996,1.781e-05,0.0,0 STARLINK-4558,1 53426U 22097AQ  24208.77552500  .00001781  00000-0  12996-3 0  9994,2 53426  53.2150 236.9963 0001311  87.5977 272.5166 15.08842849109575,6917.872,95.437,540.644,538.83,0.0
53426.0,STARLINK-4558,PAYLOAD,2024-07-27 05:44:27,15.08862889,0.0001253,53.2153,234.919,88.0549,272.0587,-0.00036215,-6.05e-05,0.0,0 STARLINK-4558,1 53426U 22097AQ  24209.23920644 -.00006050  00000-0 -36215-3 0  9990,2 53426  53.2153 234.9190 0001253  88.0549 272.0587 15.08862889109167,6917.81,95.436,540.542,538.809,0.0
53426.0,STARLINK-4558,PAYLOAD,2024-07-27 08:55:14,15.08835783,0.0001423,53.2156,234.323,91.4623,268.6532,2.255e-05,7.1e-07,0.0,0 STARLINK-4558,1 53426U 22097AQ  24209.37169273  .00000071  00000-0  22550-4 0  9991,2 53426  53.2156 234.3230 0001423  91.4623 268.6532 15.08835783109185,6917.893,95.438,540.743,538.774,0.0
53426.0,STARLINK-4558,PAYLOAD,2024-07-28 10:21:24,15.08837413,0.0001435,53.2151,229.569,110.7134,249.4012,4.0653e-05,3.59e-06,0.0,0 STARLINK-4558,1 53426U 22097AQ  24210.43153212  .00000359  00000-0  40653-4 0  9999,2 53426  53.2151 229.5690 0001435 110.7134 249.4012 15.08837413109341,6917.888,95.438,540.746,538.761,0.0
53426.0,STARLINK-4558,PAYLOAD,2024-07-29 10:12:11,15.0884077,0.0001379,53.2152,225.0991,87.5027,272.6123,9.0464e-05,1.152e-05,0.0,0 STARLINK-4558,1 53426U 22097AQ  24211.42513022  .00001152  00000-0  90464-4 0  9995,2 53426  53.2152 225.0991 0001379  87.5027 272.6123 15.08840770109976,6917.878,95.438,540.697,538.789,0.0
53426.0,STARLINK-4558,PAYLOAD,2024-07-30 05:16:48,15.08841545,0.0001357,53.2152,221.5303,88.9441,271.1706,8.0031e-05,9.86e-06,0.0,0 STARLINK-4558,1 53426U 22097AQ  24212.22001052  .00000986  00000-0  80031-4 0  9992,2 53426  53.2152 221.5303 0001357  88.9441 271.1706 15.08841545109618,6917.876,95.437,540.679,538.802,0.0
53426.0,STARLINK-4558,PAYLOAD,2024-07-30 10:02:58,15.08842885,0.000133,53.215,220.6385,91.5198,268.5946,8.6593e-05,1.091e-05,0.0,0 STARLINK-4558,1 53426U 22097AQ  24212.41872924  .00001091  00000-0  86593-4 0  9994,2 53426  53.2150 220.6385 0001330  91.5198 268.5946 15.08842885110128,6917.872,95.437,540.657,538.816,0.0
53426.0,STARLINK-4558,PAYLOAD,2024-07-30 17:59:53,15.08844887,0.0001343,53.2151,219.1523,90.2063,269.9083,9.0593e-05,1.154e-05,0.0,0 STARLINK-4558,1 53426U 22097AQ  24212.74992759  .00001154  00000-0  90593-4 0  9994,2 53426  53.2151 219.1523 0001343  90.2063 269.9083 15.08844887110173,6917.865,95.437,540.66,538.801,0.0
53426.0,STARLINK-4558,PAYLOAD,2024-07-31 06:42:59,15.08836083,0.0001422,53.2153,216.773,96.9301,263.1852,9.2498e-06,-1.41e-06,0.0,0 STARLINK-4558,1 53426U 22097AQ  24213.27985604 -.00000141  00000-0  92498-5 0  9997,2 53426  53.2153 216.7730 0001422  96.9301 263.1852 15.08836083110252,6917.892,95.438,540.741,538.774,0.0
53426.0,STARLINK-4558,PAYLOAD,2024-08-01 09:44:33,15.08839451,0.0001562,53.2165,211.7165,100.8442,259.2726,8.6565e-05,1.09e-05,0.0,0 STARLINK-4558,1 53426U 22097AQ  24214.40594318  .00001090  00000-0  86565-4 0  9991,2 53426  53.2165 211.7165 0001562 100.8442 259.2726 15.08839451109940,6917.882,95.438,540.828,538.666,0.0
53426.0,STARLINK-4558,PAYLOAD,2024-08-02 04:49:09,15.08852507,0.0001507,53.2163,208.1478,103.5381,256.5779,0.00026398,3.917e-05,0.0,0 STARLINK-4558,1 53426U 22097AQ  24215.20080942  .00003917  00000-0  26398-3 0  9990,2 53426  53.2163 208.1478 0001507 103.5381 256.5779 15.08852507110066,6917.842,95.437,540.75,538.665,0.0
53426.0,STARLINK-4558,PAYLOAD,2024-08-02 09:35:19,15.08865551,0.0001203,53.2154,207.2578,70.2727,289.8394,0.00016859,2.398e-05,0.0,0 STARLINK-4558,1 53426U 22097AQ  24215.39952611  .00002398  00000-0  16859-3 0  9994,2 53426  53.2154 207.2578 0001203  70.2727 289.8394 15.08865551110575,6917.802,95.436,540.5,538.835,0.0
53426.0,STARLINK-4558,PAYLOAD,2024-08-03 06:15:21,15.08839933,0.000117,53.2146,203.3921,100.6804,259.432,-0.00012198,-2.229e-05,0.0,0 STARLINK-4558,1 53426U 22097AQ  24216.26066279 -.00002229  00000-0 -12198-3 0  9994,2 53426  53.2146 203.3921 0001170 100.6804 259.4320 15.08839933110221,6917.881,95.438,540.555,538.936,0.0
53426.0,STARLINK-4558,PAYLOAD,2024-08-03 09:26:07,15.08837896,0.0001386,53.2146,202.7979,91.6648,268.4503,-0.00015241,-2.713e-05,0.0,0 STARLINK-4558,1 53426U 22097AQ  24216.39314425 -.00002713  00000-0 -15241-3 0  9997,2 53426  53.2146 202.7979 0001386  91.6648 268.4503 15.08837896110725,6917.887,95.438,540.711,538.793,0.0
53426.0,STARLINK-4558,PAYLOAD,2024-08-03 15:47:40,15.08839698,0.0001264,53.216,201.6089,104.8499,255.2633,-4.6425e-05,-1.027e-05,0.0,0 STARLINK-4558,1 53426U 22097AQ  24216.65810813 -.00001027  00000-0 -46425-4 0  9994,2 53426  53.2160 201.6089 0001264 104.8499 255.2633 15.08839698110761,6917.881,95.438,540.621,538.872,0.0
53426.0,STARLINK-4558,PAYLOAD,2024-08-04 06:06:07,15.08853043,0.0001224,53.2154,198.932,102.2087,257.9042,-1.888e-05,-5.88e-06,0.0,0 STARLINK-4558,1 53426U 22097AQ  24217.25425686 -.00000588  00000-0 -18880-4 0  9996,2 53426  53.2154 198.9320 0001224 102.2087 257.9042 15.08853043110371,6917.841,95.437,540.552,538.859,0.0
53426.0,STARLINK-4558,PAYLOAD,2024-08-04 15:38:25,15.08863726,0.0001319,53.2159,197.1477,100.1176,259.9965,7.8552e-05,9.63e-06,0.0,0 STARLINK-4558,1 53426U 22097AQ  24217.65168444  .00000963  00000-0  78552-4 0  9993,2 53426  53.2159 197.1477 0001319 100.1176 259.9965 15.08863726110433,6917.808,95.436,540.585,538.76,0.0
53426.0,STARLINK-4558,PAYLOAD,2024-08-05 04:21:31,15.08839318,0.0001594,53.2152,194.7692,98.269,261.8483,0.0001012,1.323e-05,0.0,0 STARLINK-4558,1 53426U 22097AQ  24218.18161787  .00001323  00000-0  10120-3 0  9992,2 53426  53.2152 194.7692 0001594  98.2690 261.8483 15.08839318110517,6917.882,95.438,540.85,538.645,0.0
53426.0,STARLINK-4558,PAYLOAD,2024-08-05 05:56:54,15.08843191,0.0001383,53.2145,194.4715,93.9625,266.1525,0.00021976,3.212e-05,0.0,0 STARLINK-4558,1 53426U 22097AQ  24218.24785645  .00003212  00000-0  21976-3 0  9994,2 53426  53.2145 194.4715 0001383  93.9625 266.1525 15.08843191111002,6917.871,95.437,540.692,538.779,0.0
53426.0,STARLINK-4558,PAYLOAD,2024-08-06 04:12:19,15.08833899,0.0001482,53.2156,190.3096,109.1769,250.9384,-0.00012287,-2.243e-05,0.0,0 STARLINK-4558,1 53426U 22097AQ  24219.17522119 -.00002243  00000-0 -12287-3 0  9992,2 53426  53.2156 190.3096 0001482 109.1769 250.9384 15.08833899110669,6917.899,95.438,540.789,538.739,0.0
53426.0,STARLINK-4558,PAYLOAD,2024-08-06 05:47:41,15.08836055,0.0001381,53.2136,190.0088,134.3121,225.7985,-0.00012843,-2.331e-05,0.0,0 STARLINK-4558,1 53426U 22097AQ  24219.24145777 -.00002331  00000-0 -12843-3 0  9997,2 53426  53.2136 190.0088 0001381 134.3121 225.7985 15.08836055111154,6917.892,95.438,540.713,538.802,0.0
53426.0,STARLINK-4558,PAYLOAD,2024-08-07 02:27:42,15.08843046,0.0001376,53.2163,186.1446,86.6362,273.4787,0.00012586,1.716e-05,0.0,0 STARLINK-4558,1 53426U 22097AQ  24220.10257846  .00001716  00000-0  12586-3 0  9993,2 53426  53.2163 186.1446 0001376  86.6362 273.4787 15.08843046110807,6917.871,95.437,540.688,538.784,0.0
